NORAD_CAT_ID,OBJECT_NAME,OBJECT_TYPE,EPOCH,MEAN_MOTION,ECCENTRICITY,INCLINATION,RA_OF_ASC_NODE,ARG_OF_PERICENTER,MEAN_ANOMALY,BSTAR,MEAN_MOTION_DOT,MEAN_MOTION_DDOT,TLE_LINE0,TLE_LINE1,TLE_LINE2,SEMIMAJOR_AXIS,PERIOD,APOGEE,PERIGEE,DECAYED
53537.0,STARLINK-4120,PAYLOAD,2023-09-15 04:01:00,15.08837876,0.0001388,53.2182,183.6296,99.42,260.6949,2.8881e-06,-2.42e-06,0.0,0 STARLINK-4120,1 53537U 22101L   23258.16736115 -.00000242  00000-0  28881-5 0  9990,2 53537  53.2182 183.6296 0001388  99.4200 260.6949 15.08837876 59312,6917.887,95.438,540.712,538.792,0.0
53537.0,STARLINK-4120,PAYLOAD,2023-09-16 03:51:46,15.08849537,0.000137,53.218,179.1685,108.0996,252.0145,8.2856e-05,1.031e-05,0.0,0 STARLINK-4120,1 53537U 22101L   23259.16095283  .00001031  00000-0  82856-4 0  9992,2 53537  53.2180 179.1685 0001370 108.0996 252.0145 15.08849537 59468,6917.851,95.437,540.664,538.768,0.0
53537.0,STARLINK-4120,PAYLOAD,2023-09-16 18:10:15,15.08835842,0.0001532,53.2175,176.4926,86.8617,273.255,3.8823e-05,3.3e-06,0.0,0 STARLINK-4120,1 53537U 22101L   23259.75712551  .00000330  00000-0  38823-4 0  9997,2 53537  53.2175 176.4926 0001532  86.8617 273.2550 15.08835842 59552,6917.893,95.438,540.818,538.698,0.0
53537.0,STARLINK-4120,PAYLOAD,2023-09-17 03:42:33,15.08846054,0.0001307,53.2179,174.7082,94.9414,265.1727,0.00010518,1.387e-05,0.0,0 STARLINK-4120,1 53537U 22101L   23260.15455726  .00001387  00000-0  10518-3 0  9994,2 53537  53.2179 174.7082 0001307  94.9414 265.1727 15.08846054 59615,6917.862,95.437,540.631,538.823,0.0
53537.0,STARLINK-4120,PAYLOAD,2023-09-18 00:22:34,15.08848423,0.000144,53.2179,170.8412,96.9443,263.1712,1.3959e-05,-6.6e-07,0.0,0 STARLINK-4120,1 53537U 22101L   23261.01567777 -.00000066  00000-0  13959-4 0  9997,2 53537  53.2179 170.8412 0001440  96.9443 263.1712 15.08848423 59749,6917.855,95.437,540.716,538.723,0.0
53537.0,STARLINK-4120,PAYLOAD,2023-09-18 21:02:35,15.08841129,0.0001348,53.2167,166.9763,101.119,258.9954,1.7724e-05,-6e-08,0.0,0 STARLINK-4120,1 53537U 22101L   23261.87680127 -.00000006  00000-0  17724-4 0  9994,2 53537  53.2167 166.9763 0001348 101.1190 258.9954 15.08841129 59876,6917.877,95.437,540.674,538.809,0.0
53537.0,STARLINK-4120,PAYLOAD,2023-09-19 00:13:21,15.08850407,0.0001253,53.2175,166.382,90.3916,269.722,8.4355e-05,1.055e-05,0.0,0 STARLINK-4120,1 53537U 22101L   23262.00927364  .00001055  00000-0  84355-4 0  9995,2 53537  53.2175 166.3820 0001253  90.3916 269.7220 15.08850407 59890,6917.849,95.437,540.58,538.847,0.0
53537.0,STARLINK-4120,PAYLOAD,2023-09-20 03:14:53,15.08855991,0.0001395,53.2177,161.3246,96.1301,263.985,9.1098e-05,1.163e-05,0.0,0 STARLINK-4120,1 53537U 22101L   23263.13534428  .00001163  00000-0  91098-4 0  9997,2 53537  53.2177 161.3246 0001395  96.1301 263.9850 15.08855991 60067,6917.832,95.437,540.662,538.731,0.0
53537.0,STARLINK-4120,PAYLOAD,2023-09-20 22:19:34,15.08827464,0.0001391,53.218,157.7566,102.9686,257.1461,-0.00015398,-2.737e-05,0.0,0 STARLINK-4120,1 53537U 22101L   23263.93025497 -.00002737  00000-0 -15398-3 0  9994,2 53537  53.2180 157.7566 0001391 102.9686 257.1461 15.08827464 60183,6917.919,95.438,540.746,538.821,0.0
53537.0,STARLINK-4120,PAYLOAD,2023-09-21 01:30:20,15.08822849,0.0001287,53.218,157.1632,82.6819,277.432,-0.00018816,-3.28e-05,0.0,0 STARLINK-4120,1 53537U 22101L   23264.06274055 -.00003280  00000-0 -18816-3 0  9997,2 53537  53.2180 157.1632 0001287  82.6819 277.4320 15.08822849 60201,6917.933,95.439,540.688,538.907,0.0
53537.0,STARLINK-4120,PAYLOAD,2023-09-21 03:05:43,15.08822989,0.0001316,53.2177,156.8659,78.1025,282.0114,-0.00017721,-3.106e-05,0.0,0 STARLINK-4120,1 53537U 22101L   23264.12898117 -.00003106  00000-0 -17721-3 0  9996,2 53537  53.2177 156.8659 0001316  78.1025 282.0114 15.08822989 60213,6917.932,95.439,540.708,538.887,0.0
53537.0,STARLINK-4120,PAYLOAD,2023-09-21 17:24:11,15.08837795,0.0001211,53.2173,154.1905,102.3903,257.7225,-0.00010575,-1.97e-05,0.0,0 STARLINK-4120,1 53537U 22101L   23264.72513328 -.00001970  00000-0 -10575-3 0  9997,2 53537  53.2173 154.1905 0001211 102.3903 257.7225 15.08837795 60306,6917.887,95.438,540.59,538.914,0.0
53537.0,STARLINK-4120,PAYLOAD,2023-09-21 22:10:20,15.08845933,0.0001322,53.2177,153.297,96.1968,263.9175,-1.0267e-05,-4.51e-06,0.0,0 STARLINK-4120,1 53537U 22101L   23264.92384395 -.00000451  00000-0 -10267-4 0  9991,2 53537  53.2177 153.2970 0001322  96.1968 263.9175 15.08845933 60335,6917.862,95.437,540.642,538.813,0.0
53537.0,STARLINK-4120,PAYLOAD,2023-09-21 23:45:43,15.08848512,0.0001255,53.2174,153.002,92.855,267.2585,1.4757e-05,-5.3e-07,0.0,0 STARLINK-4120,1 53537U 22101L   23264.99008363 -.00000053  00000-0  14757-4 0  9991,2 53537  53.2174 153.0020 0001255  92.8550 267.2585 15.08848512 60340,6917.854,95.437,540.588,538.851,0.0
53537.0,STARLINK-4120,PAYLOAD,2023-09-22 02:56:29,15.0885156,0.0001275,53.2173,152.4063,103.8171,256.2963,2.775e-05,1.54e-06,0.0,0 STARLINK-4120,1 53537U 22101L   23265.12256109  .00000154  00000-0  27750-4 0  9998,2 53537  53.2173 152.4063 0001275 103.8171 256.2963 15.08851560 60360,6917.845,95.437,540.592,538.828,0.0
53537.0,STARLINK-4120,PAYLOAD,2023-09-22 15:39:35,15.08828905,0.000128,53.2171,150.0275,80.1551,279.9586,0.0002481,3.662e-05,0.0,0 STARLINK-4120,1 53537U 22101L   23265.65249316  .00003662  00000-0  24810-3 0  9998,2 53537  53.2171 150.0275 0001280  80.1551 279.9586 15.08828905 60441,6917.914,95.438,540.665,538.894,0.0
53537.0,STARLINK-4120,PAYLOAD,2023-09-22 22:01:07,15.08837511,0.0001262,53.217,148.8392,82.4648,277.6488,0.00028741,4.289e-05,0.0,0 STARLINK-4120,1 53537U 22101L   23265.91744794  .00004289  00000-0  28741-3 0  9990,2 53537  53.2170 148.8392 0001262  82.4648 277.6488 15.08837511 60480,6917.888,95.438,540.626,538.88,0.0
53537.0,STARLINK-4120,PAYLOAD,2023-09-22 23:36:30,15.08843088,0.0001337,53.2169,148.5418,99.7972,260.3171,0.00021566,3.146e-05,0.0,0 STARLINK-4120,1 53537U 22101L   23265.98368650  .00003146  00000-0  21566-3 0  9999,2 53537  53.2169 148.5418 0001337  99.7972 260.3171 15.08843088 60493,6917.871,95.437,540.661,538.811,0.0
53537.0,STARLINK-4120,PAYLOAD,2023-09-23 02:47:16,15.08845046,0.0001253,53.2168,147.9444,100.8408,259.2726,0.00032827,4.941e-05,0.0,0 STARLINK-4120,1 53537U 22101L   23266.11616168  .00004941  00000-0  32827-3 0  9991,2 53537  53.2168 147.9444 0001253 100.8408 259.2726 15.08845046 60511,6917.865,95.437,540.597,538.863,0.0
53537.0,STARLINK-4120,PAYLOAD,2023-09-24 01:02:41,15.08844783,0.0001363,53.2171,143.7841,80.2858,279.8288,3.3775e-05,2.5e-06,0.0,0 STARLINK-4120,1 53537U 22101L   23267.04353170  .00000250  00000-0  33775-4 0  9998,2 53537  53.2171 143.7841 0001363  80.2858 279.8288 15.08844783 60655,6917.866,95.437,540.674,538.788,0.0
53537.0,STARLINK-4120,PAYLOAD,2023-09-24 21:42:42,15.08840664,0.0001118,53.2184,139.9153,100.6477,259.4641,-0.00011842,-2.172e-05,0.0,0 STARLINK-4120,1 53537U 22101L   23267.90465516 -.00002172  00000-0 -11842-3 0  9998,2 53537  53.2184 139.9153 0001118 100.6477 259.4641 15.08840664 60789,6917.878,95.438,540.517,538.97,0.0
53537.0,STARLINK-4120,PAYLOAD,2023-09-25 00:53:30,15.08821285,0.0001251,53.2173,139.3202,92.9523,267.1612,-0.00026013,-4.423e-05,0.0,0 STARLINK-4120,1 53537U 22101L   23268.03715292 -.00004423  00000-0 -26013-3 0  9999,2 53537  53.2173 139.3202 0001251  92.9523 267.1612 15.08821285 60804,6917.938,95.439,540.668,538.937,0.0
53537.0,STARLINK-4120,PAYLOAD,2023-09-25 21:33:30,15.08830724,0.0001071,53.2165,135.4608,76.8843,283.2269,-2.5265e-05,-6.9e-06,0.0,0 STARLINK-4120,1 53537U 22101L   23268.89826950 -.00000690  00000-0 -25265-4 0  9998,2 53537  53.2165 135.4608 0001071  76.8843 283.2269 15.08830724 60937,6917.909,95.438,540.515,539.033,0.0
53537.0,STARLINK-4120,PAYLOAD,2023-09-26 00:44:16,15.08834944,0.0001553,53.2171,134.8625,64.0493,296.0659,2.384e-05,9.1e-07,0.0,0 STARLINK-4120,1 53537U 22101L   23269.03074676  .00000091  00000-0  23840-4 0  9995,2 53537  53.2171 134.8625 0001553  64.0493 296.0659 15.08834944 60956,6917.896,95.438,540.835,538.686,0.0
53537.0,STARLINK-4120,PAYLOAD,2023-09-26 18:13:29,15.08851305,0.00015,53.2173,131.5856,112.7699,247.3452,7.6063e-05,9.23e-06,0.0,0 STARLINK-4120,1 53537U 22101L   23269.75937464  .00000923  00000-0  76063-4 0  9996,2 53537  53.2173 131.5856 0001500 112.7699 247.3452 15.08851305 61062,6917.846,95.437,540.749,538.673,0.0
53537.0,STARLINK-4120,PAYLOAD,2023-09-26 21:24:16,15.08844384,0.000121,53.2176,130.9937,91.2469,268.8662,0.0003764,5.708e-05,0.0,0 STARLINK-4120,1 53537U 22101L   23269.89186339  .00005708  00000-0  37640-3 0  9991,2 53537  53.2176 130.9937 0001210  91.2469 268.8662 15.08844384 61084,6917.867,95.437,540.569,538.895,0.0
53537.0,STARLINK-4120,PAYLOAD,2023-09-27 11:42:45,15.08843414,0.0001513,53.2171,128.3118,118.5415,241.573,0.00023019,3.378e-05,0.0,0 STARLINK-4120,1 53537U 22101L   23270.48802142  .00003378  00000-0  23019-3 0  9991,2 53537  53.2171 128.3118 0001513 118.5415 241.5730 15.08843414 61178,6917.87,95.437,540.782,538.688,0.0
53537.0,STARLINK-4120,PAYLOAD,2023-09-27 18:04:17,15.08840796,0.0001354,53.217,127.1257,113.5149,246.5985,-5.2797e-05,-1.128e-05,0.0,0 STARLINK-4120,1 53537U 22101L   23270.75298359 -.00001128  00000-0 -52797-4 0  9999,2 53537  53.2170 127.1257 0001354 113.5149 246.5985 15.08840796 61212,6917.878,95.438,540.68,538.806,0.0
53537.0,STARLINK-4120,PAYLOAD,2023-09-27 21:15:04,15.0884376,0.0001238,53.2172,126.5348,77.4255,282.6875,2.8377e-05,1.64e-06,0.0,0 STARLINK-4120,1 53537U 22101L   23270.88546384  .00000164  00000-0  28377-4 0  9991,2 53537  53.2172 126.5348 0001238  77.4255 282.6875 15.08843760 61230,6917.869,95.437,540.59,538.877,0.0
53537.0,STARLINK-4120,PAYLOAD,2023-09-28 17:55:04,15.08852064,0.0001082,53.2167,122.6705,77.709,282.4023,6.3182e-06,-1.87e-06,0.0,0 STARLINK-4120,1 53537U 22101L   23271.74657638 -.00000187  00000-0  63182-5 0  9992,2 53537  53.2167 122.6705 0001082  77.7090 282.4023 15.08852064 61369,6917.844,95.437,540.457,538.96,0.0
